NORAD_CAT_ID,OBJECT_NAME,OBJECT_TYPE,EPOCH,MEAN_MOTION,ECCENTRICITY,INCLINATION,RA_OF_ASC_NODE,ARG_OF_PERICENTER,MEAN_ANOMALY,BSTAR,MEAN_MOTION_DOT,MEAN_MOTION_DDOT,TLE_LINE0,TLE_LINE1,TLE_LINE2,SEMIMAJOR_AXIS,PERIOD,APOGEE,PERIGEE,DECAYED
52989.0,STARLINK-4293,PAYLOAD,2022-07-12 16:00:00,15.87746987,0.0031416,53.218,354.5951,56.7373,165.9033,-0.004009,-0.01145302,0.00037597,0 STARLINK-4293,1 52989U 22076D   22193.66667824 -.01145302  37597-3 -40090-2 0  9999,2 52989  53.2180 354.5951 0031416  56.7373 165.9033 15.87746987  1305,6686.738,90.695,329.61,287.596,0.0
52989.0,STARLINK-4293,PAYLOAD,2022-07-13 04:00:00,15.86633573,0.0027278,53.2175,352.0685,56.1541,145.0796,-0.0044426,-0.01187547,0.00039749,0 STARLINK-4293,1 52989U 22076D   22194.16667824 -.01187547  39749-3 -44426-2 0  9990,2 52989  53.2175 352.0685 0027278  56.1541 145.0796 15.86633573  1375,6689.866,90.758,329.98,293.482,0.0
52989.0,STARLINK-4293,PAYLOAD,2022-07-13 14:00:01,15.85660415,0.0023195,53.2177,349.9672,54.7898,7.053999999999999,-0.0045023999999999,-0.01137875,0.00036456,0 STARLINK-4293,1 52989U 22076D   22194.58334491 -.01137875  36456-3 -45024-2 0  9993,2 52989  53.2177 349.9672 0023195  54.7898   7.0540 15.85660415  1447,6692.603,90.814,329.991,298.944,0.0
52989.0,STARLINK-4293,PAYLOAD,2022-07-13 22:00:00,15.84909778,0.0020309,53.2173,348.289,56.2739,109.0211,-0.0047687,-0.01037527,0.0,0 STARLINK-4293,1 52989U 22076D   22194.91667824 -.01037527  00000-0 -47687-2 0  9992,2 52989  53.2173 348.2890 0020309  56.2739 109.0211 15.84909778  1302,6694.715999999999,90.857,330.177,302.9840000000001,0.0
52989.0,STARLINK-4293,PAYLOAD,2022-07-14 04:00:00,15.84339321,0.0018456,53.2176,347.029,55.5727,96.7162,-0.0049108999999999,-0.01035509,0.0,0 STARLINK-4293,1 52989U 22076D   22195.16667824 -.01035509  00000-0 -49109-2 0  9999,2 52989  53.2176 347.0290 0018456  55.5727  96.7162 15.84339321  1538,6696.323,90.89,330.546,305.829,0.0
52989.0,STARLINK-4293,PAYLOAD,2022-07-14 14:00:01,15.83394285,0.0014485,53.2175,344.9349,52.4227,317.0441,-0.0052075,-0.01041149,0.0,0 STARLINK-4293,1 52989U 22076D   22195.58334491 -.01041149  00000-0 -52075-2 0  9999,2 52989  53.2175 344.9349 0014485  52.4227 317.0441 15.83394285  1603,6698.986999999999,90.944,330.555,311.148,0.0
52989.0,STARLINK-4293,PAYLOAD,2022-07-14 22:00:00,15.82623505,0.0011064,53.2172,343.2623,51.0505,59.1363,-0.0053006,-0.010191,0.0,0 STARLINK-4293,1 52989U 22076D   22195.91667824 -.01019100  00000-0 -53006-2 0  9992,2 52989  53.2172 343.2623 0011064  51.0505  59.1363 15.82623505  1304,6701.1619999999975,90.988,330.441,315.613,0.0
52989.0,STARLINK-4293,PAYLOAD,2022-07-15 12:00:00,15.81312542,0.0007099999999999,53.2178,340.3364,42.7337,151.5066,-0.0058413,-0.01047479,0.0,0 STARLINK-4293,1 52989U 22076D   22196.50001157 -.01047479  00000-0 -58413-2 0  9996,2 52989  53.2178 340.3364 0007100  42.7337 151.5066 15.81312542  1746,6704.865,91.064,331.49,321.969,0.0
52989.0,STARLINK-4293,PAYLOAD,2022-07-15 14:00:01,15.811302800000002,0.0006309999999999,53.2176,339.9198,39.0879,269.7869,-0.0059793,-0.01060647,0.0,0 STARLINK-4293,1 52989U 22076D   22196.58334491 -.01060647  00000-0 -59793-2 0  9998,2 52989  53.2176 339.9198 0006310  39.0879 269.7869 15.81130280  1307,6705.38,91.074,331.476,323.014,0.0
52989.0,STARLINK-4293,PAYLOAD,2022-07-15 22:00:00,15.80354372,0.0004056,53.2171,338.2524,22.8134,24.0457,-0.0060192,-0.0103159,0.0,0 STARLINK-4293,1 52989U 22076D   22196.91667824 -.01031590  00000-0 -60192-2 0  9994,2 52989  53.2171 338.2524 0004056  22.8134  24.0457 15.80354372  1816,6707.575,91.119,332.16,326.719,0.0
52989.0,STARLINK-4293,PAYLOAD,2022-07-16 12:00:00,15.79030108,0.0003533,53.2175,335.3366,5.4971,120.6282,-0.0064517,-0.01056771,0.0,0 STARLINK-4293,1 52989U 22076D   22197.50001157 -.01056771  00000-0 -64517-2 0  9994,2 52989  53.2175 335.3366 0003533   5.4971 120.6282 15.79030108  1902,6711.324000000001,91.195,335.561,330.8180000000001,0.0
52989.0,STARLINK-4293,PAYLOAD,2022-07-16 14:00:01,15.78840392,0.0003423,53.2174,334.9214,6.0701,234.0075,-0.0065105,-0.01057099,0.0,0 STARLINK-4293,1 52989U 22076D   22197.58334491 -.01057099  00000-0 -65105-2 0  9990,2 52989  53.2174 334.9214 0003423   6.0701 234.0075 15.78840392  1301,6711.861999999999,91.206,336.025,331.43,0.0
52989.0,STARLINK-4293,PAYLOAD,2022-07-16 22:00:00,15.78083381,0.0002958,53.2172,333.2595,6.6704,328.6467,-0.0067565,-0.01059404,0.0,0 STARLINK-4293,1 52989U 22076D   22197.91667824 -.01059404  00000-0 -67565-2 0  9990,2 52989  53.2172 333.2595 0002958   6.6704 328.6467 15.78083381  1306,6714.0080000000025,91.25,337.8590000000001,333.88699999999994,0.0
52989.0,STARLINK-4293,PAYLOAD,2022-07-17 04:00:01,15.77512055,0.0002829,53.2176,332.0121,7.9585,308.2584,-0.0069236,-0.01058025,0.0,0 STARLINK-4293,1 52989U 22076D   22198.16668981 -.01058025  00000-0 -69236-2 0  9998,2 52989  53.2176 332.0121 0002829   7.9585 308.2584 15.77512055  2017,6715.629,91.283,339.394,335.594,0.0
52989.0,STARLINK-4293,PAYLOAD,2022-07-17 14:00:01,15.76560196,0.0003529,53.2176,329.9397,6.7070000000000025,156.3563,-0.0071866,-0.01053254,0.0,0 STARLINK-4293,1 52989U 22076D   22198.58334491 -.01053254  00000-0 -71866-2 0  9991,2 52989  53.2176 329.9397 0003529   6.7070 156.3563 15.76560196  1309,6718.331999999999,91.338,342.5680000000001,337.826,0.0
52989.0,STARLINK-4293,PAYLOAD,2022-07-17 20:00:01,15.75988357,0.0003594,53.2173,328.6978,5.6359,136.8904,-0.0073365999999999,-0.01048741,0.0,0 STARLINK-4293,1 52989U 22076D   22198.83334491 -.01048741  00000-0 -73366-2 0  9991,2 52989  53.2173 328.6978 0003594   5.6359 136.8904 15.75988357  2111,6719.956999999999,91.371,344.237,339.407,0.0
52989.0,STARLINK-4293,PAYLOAD,2022-07-17 22:00:00,15.75805464,0.0003407,53.2171,328.2831,5.5044,250.0601,-0.0074883,-0.01060396,0.0,0 STARLINK-4293,1 52989U 22076D   22198.91667824 -.01060396  00000-0 -74883-2 0  9994,2 52989  53.2171 328.2831 0003407   5.5044 250.0601 15.75805464  1306,6720.477,91.382,344.63199999999995,340.052,0.0
52989.0,STARLINK-4293,PAYLOAD,2022-07-18 06:00:00,15.75040633,0.0001377,53.2172,326.6263,21.3257,325.8326,-0.0076852,-0.01052024,0.0,0 STARLINK-4293,1 52989U 22076D   22199.25001157 -.01052024  00000-0 -76852-2 0  9990,2 52989  53.2172 326.6263 0001377  21.3257 325.8326 15.75040633  2185,6722.653,91.426,345.4430000000001,343.592,0.0
52989.0,STARLINK-4293,PAYLOAD,2022-07-18 14:00:01,15.74245028,0.0001686999999999,53.2173,324.975,25.2663,52.5756,-0.0072806,-0.00970751,0.0,0 STARLINK-4293,1 52989U 22076D   22199.58334491 -.00970751  00000-0 -72806-2 0  9996,2 52989  53.2173 324.9750 0001687  25.2663  52.5756 15.74245028  1304,6724.917,91.472,347.917,345.648,0.0
52989.0,STARLINK-4293,PAYLOAD,2022-07-18 22:00:00,15.73431486,0.0001737,53.2173,323.3239,25.6731,141.937,-0.002364,-0.00323191,0.0,0 STARLINK-4293,1 52989U 22076D   22199.91667824 -.00323191  00000-0 -23640-2 0  9994,2 52989  53.2173 323.3239 0001737  25.6731 141.9370 15.73431486  2282,6727.235,91.52,350.269,347.932,0.0
52989.0,STARLINK-4293,PAYLOAD,2022-07-19 04:00:00,15.73202962,0.0001057,53.2175,322.0849,74.3111,70.1293,1.9937e-05,2.18e-05,0.0,0 STARLINK-4293,1 52989U 22076D   22200.16667824  .00002180  00000-0  19937-4 0  9990,2 52989  53.2175 322.0849 0001057  74.3111  70.1293 15.73202962  2322,6727.887,91.533,350.463,349.041,0.0
52989.0,STARLINK-4293,PAYLOAD,2022-07-19 14:00:01,15.7326186,0.000157,53.2194,320.0292,46.1989,299.5038,-0.0005385,-0.0007572,0.0,0 STARLINK-4293,1 52989U 22076D   22200.58334491 -.00075720  00000-0 -53850-3 0  9990,2 52989  53.2194 320.0292 0001570  46.1989 299.5038 15.73261860  2396,6727.719,91.53,350.64,348.528,0.0
52989.0,STARLINK-4293,PAYLOAD,2022-07-19 20:00:01,15.73204051,0.0001346,53.2172,318.7878,48.9553,273.3516,1.4643e-05,1.436e-05,0.0,0 STARLINK-4293,1 52989U 22076D   22200.83334491  .00001436  00000-0  14643-4 0  9997,2 52989  53.2172 318.7878 0001346  48.9553 273.3516 15.73204051  2439,6727.884,91.533,350.654,348.843,0.0
52989.0,STARLINK-4293,PAYLOAD,2022-07-19 22:00:00,15.73205491,0.0001344,53.2171,318.3747,51.3771,23.1636,-1.1363e-05,-2.215e-05,0.0,0 STARLINK-4293,1 52989U 22076D   22200.91667824 -.00002215  00000-0 -11363-4 0  9999,2 52989  53.2171 318.3747 0001344  51.3771  23.1636 15.73205491  1305,6727.88,91.533,350.649,348.84,0.0
52989.0,STARLINK-4293,PAYLOAD,2022-07-20 14:00:01,15.73219709,0.0001547,53.219,315.0811,39.5705,212.9538,0.00012435,0.00016881,0.0,0 STARLINK-4293,1 52989U 22076D   22201.58334491  .00016881  00000-0  12435-3 0  9996,2 52989  53.2190 315.0811 0001547  39.5705 212.9538 15.73219709  1308,6727.839,91.532,350.745,348.663,0.0
52989.0,STARLINK-4293,PAYLOAD,2022-07-20 22:00:01,15.73239194,0.0001601,53.2191,313.4313,37.9321,303.5899,-0.00079581,-0.00111034,0.0,0 STARLINK-4293,1 52989U 22076D   22201.91668981 -.00111034  00000-0 -79581-3 0  9990,2 52989  53.2191 313.4313 0001601  37.9321 303.5899 15.73239194  2606,6727.783,91.531,350.726,348.571,0.0
52989.0,STARLINK-4293,PAYLOAD,2022-07-21 14:00:01,15.73109292,0.0001883,53.2191,310.1328,43.1202,116.1763,0.00022243,0.0003058999999999,0.0,0 STARLINK-4293,1 52989U 22076D   22202.58335648  .00030590  00000-0  22243-3 0  9993,2 52989  53.2191 310.1328 0001883  43.1202 116.1763 15.73109292  2709,6728.154,91.538,351.286,348.75199999999984,0.0
52989.0,STARLINK-4293,PAYLOAD,2022-07-21 22:00:00,15.73159073,0.0001849,53.2185,308.4832,41.9577,206.1002,6.924399999999999e-05,9.091e-05,0.0,0 STARLINK-4293,1 52989U 22076D   22202.91667824  .00009091  00000-0  69244-4 0  9999,2 52989  53.2185 308.4832 0001849  41.9577 206.1002 15.73159073  1308,6728.012,91.536,351.121,348.6330000000001,0.0
52989.0,STARLINK-4293,PAYLOAD,2022-07-22 04:00:00,15.731432,0.0001684,53.2186,307.2448,45.7209,179.0056,0.00069515,0.00097845,0.0,0 STARLINK-4293,1 52989U 22076D   22203.16667824  .00097845  00000-0  69515-3 0  9991,2 52989  53.2186 307.2448 0001684  45.7209 179.0056 15.73143200  2808,6728.057,91.536,351.055,348.789,0.0
